*******************************************************************************
Ephemeris / WWW_USER Mon Mar 24 08:22:09 2025 Pasadena, USA      / Horizons    
*******************************************************************************
Target body name: (2018 VA2)                      {source: JPL#8}
Center body name: Earth (399)                     {source: DE441}
Center-site name: Mauna Kea
*******************************************************************************
Start time      : A.D. 2018-Sep-25 04:25:00.0000 UT      
Stop  time      : A.D. 2018-Sep-25 16:02:00.0000 UT      
Step-size       : 1 minutes
*******************************************************************************
Target pole/equ : undefined
Target radii    : undefined                                                    
Center geodetic : 204.5278, 19.8260847, 4.21024   {E-lon(deg),Lat(deg),Alt(km)}
Center cylindric: 204.5278, 6006.35451, 2151.0229 {E-lon(deg),Dxy(km),Dz(km)}
Center pole/equ : ITRF93                          {East-longitude positive}
Center radii    : 6378.137, 6378.137, 6356.752 km {Equator_a, b, pole_c}       
Target primary  : Sun
Vis. interferer : MOON (R_eq= 1737.400) km        {source: DE441}
Rel. light bend : Sun                             {source: DE441}
Rel. lght bnd GM: 1.3271E+11 km^3/s^2                                          
Small-body perts: Yes                             {source: SB441-N16}
Atmos refraction: NO (AIRLESS)
RA format       : HMS
Time format     : CAL 
Calendar mode   : Mixed Julian/Gregorian
RTS-only print  : NO       
EOP file        : eop.250321.p250617                                           
EOP coverage    : DATA-BASED 1962-JAN-20 TO 2025-MAR-21. PREDICTS-> 2025-JUN-16
Units conversion: 1 au= 149597870.700 km, c= 299792.458 km/s, 1 day= 86400.0 s 
Table cut-offs 1: Elevation (-90.0deg=NO ),Airmass (>38.000=NO), Daylight (YES)
Table cut-offs 2: Solar elongation (  0.0,180.0=NO ),Local Hour Angle( 0.0=NO )
Table cut-offs 3: RA/DEC angular rate (     0.0=NO )                           
*******************************************************************************
Initial IAU76/J2000 heliocentric ecliptic osculating elements (au, days, deg.):
  EPOCH=  2458428.5 ! 2018-Nov-06.00 (TDB)         Residual RMS= .39675        
   EC= .3242664208426159   QR= .935847567628844    TP= 2458464.9625425939      
   OM= 226.0068906557846   W=  220.7446970607937   IN= 3.947636678272312       
  Equivalent ICRF heliocentric cartesian coordinates (au, au/d):
   X= 7.314601530918681E-01  Y= 6.289465658343808E-01  Z= 2.763726037901882E-01
  VX=-1.554701504922309E-02 VY= 1.109318211007817E-02 VZ= 3.366540373951610E-03
Asteroid physical parameters (km, seconds, rotational period in hours):        
   GM= n.a.                RAD= n.a.               ROTPER= n.a.                
   H= 27.08                G= .150                 B-V= n.a.                   
                           ALBEDO= n.a.            STYP= n.a.                  
*******************************************************************************
 Date__(UT)__HR:MN     R.A._________(ICRF)_________DEC
******************************************************
$$SOE
 2018-Sep-25 14:40  m  00 41 24.187110 +21 51 27.13020
 2018-Sep-25 14:41  m  00 41 24.182748 +21 51 27.47978
 2018-Sep-25 14:42  m  00 41 24.178436 +21 51 27.82919
 2018-Sep-25 14:43  m  00 41 24.174172 +21 51 28.17844
 2018-Sep-25 14:44  m  00 41 24.169957 +21 51 28.52753
 2018-Sep-25 14:45  m  00 41 24.165792 +21 51 28.87646
 2018-Sep-25 14:46  m  00 41 24.161677 +21 51 29.22522
 2018-Sep-25 14:47  m  00 41 24.157611 +21 51 29.57383
 2018-Sep-25 14:48  m  00 41 24.153595 +21 51 29.92227
 2018-Sep-25 14:49  m  00 41 24.149628 +21 51 30.27056
 2018-Sep-25 14:50  m  00 41 24.145712 +21 51 30.61869
 2018-Sep-25 14:51  m  00 41 24.141846 +21 51 30.96667
 2018-Sep-25 14:52  m  00 41 24.138030 +21 51 31.31449
 2018-Sep-25 14:53  m  00 41 24.134265 +21 51 31.66216
 2018-Sep-25 14:54  m  00 41 24.130550 +21 51 32.00968
 2018-Sep-25 14:55  m  00 41 24.126886 +21 51 32.35705
 2018-Sep-25 14:56  m  00 41 24.123272 +21 51 32.70426
 2018-Sep-25 14:57  m  00 41 24.119710 +21 51 33.05133
 2018-Sep-25 14:58  m  00 41 24.116198 +21 51 33.39825
 2018-Sep-25 14:59 Am  00 41 24.112738 +21 51 33.74503
 2018-Sep-25 15:00 Am  00 41 24.109328 +21 51 34.09166
 2018-Sep-25 15:01 Am  00 41 24.105971 +21 51 34.43815
 2018-Sep-25 15:02 Am  00 41 24.102664 +21 51 34.78449
 2018-Sep-25 15:03 Am  00 41 24.099410 +21 51 35.13070
 2018-Sep-25 15:04 Am  00 41 24.096207 +21 51 35.47676
 2018-Sep-25 15:05 Am  00 41 24.093056 +21 51 35.82269
 2018-Sep-25 15:06 Am  00 41 24.089957 +21 51 36.16847
 2018-Sep-25 15:07 Am  00 41 24.086909 +21 51 36.51412
 2018-Sep-25 15:08 Am  00 41 24.083915 +21 51 36.85964
 2018-Sep-25 15:09 Am  00 41 24.080972 +21 51 37.20502
 2018-Sep-25 15:10 Am  00 41 24.078082 +21 51 37.55027
 2018-Sep-25 15:11 Am  00 41 24.075244 +21 51 37.89538
 2018-Sep-25 15:12 Am  00 41 24.072459 +21 51 38.24037
 2018-Sep-25 15:13 Am  00 41 24.069727 +21 51 38.58523
 2018-Sep-25 15:14 Am  00 41 24.067047 +21 51 38.92995
 2018-Sep-25 15:15 Am  00 41 24.064420 +21 51 39.27456
 2018-Sep-25 15:16 Am  00 41 24.061847 +21 51 39.61903
 2018-Sep-25 15:17 Am  00 41 24.059326 +21 51 39.96338
 2018-Sep-25 15:18 Am  00 41 24.056859 +21 51 40.30761
 2018-Sep-25 15:19 Am  00 41 24.054445 +21 51 40.65172
 2018-Sep-25 15:20 Am  00 41 24.052085 +21 51 40.99570
 2018-Sep-25 15:21 Am  00 41 24.049778 +21 51 41.33957
 2018-Sep-25 15:22 Am  00 41 24.047524 +21 51 41.68331
 2018-Sep-25 15:23 Am  00 41 24.045325 +21 51 42.02695
 2018-Sep-25 15:24 Nm  00 41 24.043179 +21 51 42.37046
 2018-Sep-25 15:25 Nm  00 41 24.041087 +21 51 42.71386
 2018-Sep-25 15:26 Nm  00 41 24.039049 +21 51 43.05715
 2018-Sep-25 15:27 Nm  00 41 24.037066 +21 51 43.40032
 2018-Sep-25 15:28 Nm  00 41 24.035136 +21 51 43.74338
 2018-Sep-25 15:29 Nm  00 41 24.033261 +21 51 44.08634
 2018-Sep-25 15:30 Nm  00 41 24.031440 +21 51 44.42918
 2018-Sep-25 15:31 Nm  00 41 24.029673 +21 51 44.77192
 2018-Sep-25 15:32 Nm  00 41 24.027962 +21 51 45.11455
 2018-Sep-25 15:33 Nm  00 41 24.026304 +21 51 45.45708
 2018-Sep-25 15:34 Nm  00 41 24.024702 +21 51 45.79950
 2018-Sep-25 15:35 Nm  00 41 24.023154 +21 51 46.14183
 2018-Sep-25 15:36 Nm  00 41 24.021661 +21 51 46.48405
 2018-Sep-25 15:37 Nm  00 41 24.020223 +21 51 46.82617
 2018-Sep-25 15:38 Nm  00 41 24.018840 +21 51 47.16819
 2018-Sep-25 15:39 Nm  00 41 24.017512 +21 51 47.51012
 2018-Sep-25 15:40 Nm  00 41 24.016240 +21 51 47.85195
 2018-Sep-25 15:41 Nm  00 41 24.015022 +21 51 48.19368
 2018-Sep-25 15:42 Nm  00 41 24.013860 +21 51 48.53532
 2018-Sep-25 15:43 Nm  00 41 24.012754 +21 51 48.87687
 2018-Sep-25 15:44 Nm  00 41 24.011703 +21 51 49.21833
 2018-Sep-25 15:45 Nm  00 41 24.010707 +21 51 49.55970
 2018-Sep-25 15:46 Nm  00 41 24.009767 +21 51 49.90099
 2018-Sep-25 15:47 Nm  00 41 24.008883 +21 51 50.24218
 2018-Sep-25 15:48 Nm  00 41 24.008055 +21 51 50.58329
 2018-Sep-25 15:49 Nm  00 41 24.007282 +21 51 50.92431
 2018-Sep-25 15:50 Cm  00 41 24.006566 +21 51 51.26525
 2018-Sep-25 15:51 Cm  00 41 24.005905 +21 51 51.60611
 2018-Sep-25 15:52 Cm  00 41 24.005301 +21 51 51.94689
 2018-Sep-25 15:53 Cm  00 41 24.004752 +21 51 52.28759
 2018-Sep-25 15:54 Cm  00 41 24.004260 +21 51 52.62822
 2018-Sep-25 15:55 Cm  00 41 24.003824 +21 51 52.96876
 2018-Sep-25 15:56 Cm  00 41 24.003444 +21 51 53.30923
 2018-Sep-25 15:57 Cm  00 41 24.003121 +21 51 53.64963
 2018-Sep-25 15:58 Cm  00 41 24.002854 +21 51 53.98995
 2018-Sep-25 15:59 Cm  00 41 24.002643 +21 51 54.33020
 2018-Sep-25 16:00 Cm  00 41 24.002489 +21 51 54.67038
 2018-Sep-25 16:01 Cm  00 41 24.002392 +21 51 55.01050
 2018-Sep-25 16:02 Cm  00 41 24.002351 +21 51 55.35054
